{"case_id": "HO_001", "input": {"query": "ZBAA现在够CAT II标准吗", "role": "pilot", "metar": "METAR ZBAA 150600Z 09015KT 3000 RA OVC006 12/11 Q1005"}, "output": "不够CAT II标准。\n\n当前天气：能见度3km，云底高600ft，中雨。CAT II要求能见度>550米（RVR>550m）且云底高≥100ft。虽然云底高600ft满足要求，但能见度3km（3000米）远低于CAT II的RVR要求。\n\nZBAA CAT II标准是DH 100ft，但当前能见度条件只能执行CAT I进近。建议使用ILS CAT I，DH 200ft。需要确认跑道方向以计算侧风分量，当前风向090度15节。", "latency_ms": 11543, "tokens": null, "provider": "deepseek", "error": null, "error_type": null, "score": {"task_completed": true, "key_info_hit_rate": 0.5, "is_template": false, "overall_score": 0.85, "details": {"task_check": {"passed": true, "confidence": 0.8, "reason": "检测到2个结论模式"}, "key_info": {"hit_rate": 0.5, "hits": 2, "total": 4, "missed": ["IFR", "接近CAT II下限"]}, "template_check": {"is_template": false, "score": 0.0, "reasons": []}, "safety_check": {"passed": true, "missed_criticals": []}}}, "judge": null, "timestamp": "2026-04-16T02:46:16.918218"}
{"case_id": "HO_002", "input": {"query": "ZSPD现在运行受限严重吗，需要备降吗", "role": "dispatcher", "metar": "METAR ZSPD 150600Z 36025G40KT 1500 SN BKN008 OVC015 02/00 Q0995"}, "output": "运行受限严重，需要备降。关键依据：1）能见度1-2km，云底高800ft，LIFR飞行规则；2）风速25节阵风40节，强侧风风险；3）降雪天气，跑道污染风险高。当前条件无法正常放行，建议备降周边机场。", "latency_ms": 22834, "tokens": null, "provider": "deepseek", "error": null, "error_type": null, "score": {"task_completed": true, "key_info_hit_rate": 0.5, "is_template": false, "overall_score": 0.85, "details": {"task_check": {"passed": true, "confidence": 0.8, "reason": "检测到2个结论模式"}, "key_info": {"hit_rate": 0.5, "hits": 2, "total": 4, "missed": ["低能见度", "可能需要备降"]}, "template_check": {"is_template": false, "score": 0.0, "reasons": []}, "safety_check": {"passed": true, "missed_criticals": []}}}, "judge": null, "timestamp": "2026-04-16T02:46:39.753639"}
{"case_id": "HO_003", "input": {"query": "ZGGG目前运行模式是什么", "role": "atc", "metar": "METAR ZGGG 150600Z 24008KT 9999 FEW045 32/24 Q1008"}, "output": "ZGGG目前运行模式是VFR（目视飞行规则）。能见度>10km，云层FEW4500英尺，无云底高限制，完全满足目视飞行条件。风向240度8节，温度32/24度，QNH 1008。", "latency_ms": 10643, "tokens": null, "provider": "deepseek", "error": null, "error_type": null, "score": {"task_completed": true, "key_info_hit_rate": 0.3333, "is_template": false, "overall_score": 0.8, "details": {"task_check": {"passed": true, "confidence": 0.7, "reason": "检测到1个结论模式"}, "key_info": {"hit_rate": 0.3333, "hits": 1, "total": 3, "missed": ["正常运行", "夏季高温"]}, "template_check": {"is_template": false, "score": 0.0, "reasons": []}, "safety_check": {"passed": true, "missed_criticals": []}}}, "judge": null, "timestamp": "2026-04-16T02:46:50.398271"}
{"case_id": "HO_004", "input": {"query": "ZUUU够CAT IIIb标准吗", "role": "pilot", "metar": "METAR ZUUU 150600Z 06005KT 0800 FG VV002 08/07 Q1018"}, "output": "当前天气条件不满足CAT IIIb运行。\n\n能见度0.8km（<1km），垂直能见度200英尺，有雾。CAT IIIb要求RVR≥175米（约0.175km），但需要完整的ILS CAT IIIb设施、认证的飞机和机组，以及DH 0ft。\n\n虽然ZUUU有CAT IIIb能力（DH 0ft），但当前能见度0.8km虽然数值上大于CAT IIIb的RVR要求，但实际运行中CAT IIIb通常需要特定的RVR报告和完整的低能见度程序支持。更重要的是，垂直能见度200英尺限制了复飞能力，且雾天气象条件可能影响系统性能。\n\n建议使用CAT I或CAT II进近，或等待天气改善。", "latency_ms": 12995, "tokens": null, "provider": "deepseek", "error": null, "error_type": null, "score": {"task_completed": true, "key_info_hit_rate": 0.75, "is_template": false, "overall_score": 0.925, "details": {"task_check": {"passed": true, "confidence": 0.7, "reason": "检测到1个结论模式"}, "key_info": {"hit_rate": 0.75, "hits": 3, "total": 4, "missed": ["IFR/LIFR"]}, "template_check": {"is_template": false, "score": 0.0, "reasons": []}, "safety_check": {"passed": true, "missed_criticals": []}}}, "judge": null, "timestamp": "2026-04-16T02:47:03.394157"}
{"case_id": "HO_005", "input": {"query": "ZSSS侧风和低云对进港航班影响大吗", "role": "dispatcher", "metar": "METAR ZSSS 150600Z 33020G35KT 5000 -RA SCT015 OVC030 18/16 Q1002"}, "output": "侧风和低云对进港航班有中等影响。能见度4-6km，云底高3000英尺，飞行规则MVFR。主要风险是阵风35节，侧风分量需根据跑道方向评估。小雨天气影响不大。建议确认跑道方向计算侧风限制，当前条件可正常放行但需关注风况变化。", "latency_ms": 22845, "tokens": null, "provider": "deepseek", "error": null, "error_type": null, "score": {"task_completed": false, "key_info_hit_rate": 0.5, "is_template": false, "overall_score": 0.45, "details": {"task_check": {"passed": false, "confidence": 0.5, "reason": "输出较长但未检测到明确结论"}, "key_info": {"hit_rate": 0.5, "hits": 2, "total": 4, "missed": ["云底1500ft", "中雨"]}, "template_check": {"is_template": false, "score": 0.0, "reasons": []}, "safety_check": {"passed": true, "missed_criticals": []}}}, "judge": null, "timestamp": "2026-04-16T02:47:26.239927"}
{"case_id": "HO_006", "input": {"query": "大兴机场现在天气配合进场吗", "role": "atc", "metar": "METAR ZBAD 150600Z 18010KT 9999 SCT050 20/12 Q1020"}, "output": "天气完全配合进场。能见度>10km，云底高5000英尺，风向180度10节，飞行规则VFR。无危险天气现象，风险评估低。所有进近方式都可用，包括目视进近。", "latency_ms": 20907, "tokens": null, "provider": "deepseek", "error": null, "error_type": null, "score": {"task_completed": true, "key_info_hit_rate": 0.25, "is_template": false, "overall_score": 0.775, "details": {"task_check": {"passed": true, "confidence": 0.7, "reason": "检测到1个结论模式"}, "key_info": {"hit_rate": 0.25, "hits": 1, "total": 4, "missed": ["能见度好", "风不大", "适合进场"]}, "template_check": {"is_template": false, "score": 0.0, "reasons": []}, "safety_check": {"passed": true, "missed_criticals": []}}}, "judge": null, "timestamp": "2026-04-16T02:47:47.148273"}
{"case_id": "HO_007", "input": {"query": "ZBTJ风切变风险大吗", "role": "pilot", "metar": "METAR ZBTJ 150600Z 27030G50KT 2000 +TSRA SCT010CB OVC025 25/22 Q0998"}, "output": "ZBTJ当前风切变风险极高。METAR显示270度风30节，阵风50节，阵风差达20节，这是典型的风切变前兆。强雷暴伴雨（+TSRA）和CB云的存在进一步加剧了风切变和微下击暴流风险。\n\n能见度2km，云底高1000ft（SCT CB）和2500ft（OVC），IFR条件。这种天气下，进近和起降阶段都可能遭遇严重风切变和低空颠簸。\n\n建议推迟运行，等待雷暴系统过境。如果必须执行，需要做好复飞预案，并考虑使用CAT II/III进近（如果可用）。", "latency_ms": 19492, "tokens": null, "provider": "deepseek", "error": null, "error_type": null, "score": {"task_completed": true, "key_info_hit_rate": 0.5, "is_template": false, "overall_score": 0.75, "details": {"task_check": {"passed": true, "confidence": 0.7, "reason": "检测到1个结论模式"}, "key_info": {"hit_rate": 0.5, "hits": 2, "total": 4, "missed": ["强降水", "风切变风险高"]}, "template_check": {"is_template": false, "score": 0.0, "reasons": []}, "safety_check": {"passed": false, "missed_criticals": ["雷暴天气"]}}}, "judge": null, "timestamp": "2026-04-16T02:48:06.641853"}
{"case_id": "HO_008", "input": {"query": "昆明机场霾天气对运行有影响吗", "role": "dispatcher", "metar": "METAR ZPPP 150600Z 18005KT 6000 HZ SCT030 22/14 Q1015"}, "output": "昆明机场当前能见度6-10km，霾天气，飞行规则MVFR。霾对运行有轻微影响，但仍在可接受范围内。能见度未低于最低运行标准，可以正常放行。建议机组注意能见度变化，特别是进近阶段。", "latency_ms": 17247, "tokens": null, "provider": "deepseek", "error": null, "error_type": null, "score": {"task_completed": true, "key_info_hit_rate": 0.75, "is_template": false, "overall_score": 0.925, "details": {"task_check": {"passed": true, "confidence": 0.8, "reason": "检测到2个结论模式"}, "key_info": {"hit_rate": 0.75, "hits": 3, "total": 4, "missed": ["能见度6000m"]}, "template_check": {"is_template": false, "score": 0.0, "reasons": []}, "safety_check": {"passed": true, "missed_criticals": []}}}, "judge": null, "timestamp": "2026-04-16T02:48:23.891040"}
{"case_id": "HO_009", "input": {"query": "杭州机场现在进场限制多吗", "role": "atc", "metar": "METAR ZSHC 150600Z 09012KT 8000 -DZ BKN012 16/15 Q1010"}, "output": "杭州机场当前天气条件良好，进场限制不多。能见度6-10km，云底高1200英尺，风向090度风速12节。飞行规则为MVFR，但实际运行条件接近VFR。没有危险天气现象，风分量适中，适合正常进近。需要确认跑道方向以计算侧风分量，建议使用逆风方向的跑道。", "latency_ms": 18533, "tokens": null, "provider": "deepseek", "error": null, "error_type": null, "score": {"task_completed": true, "key_info_hit_rate": 0.25, "is_template": false, "overall_score": 0.775, "details": {"task_check": {"passed": true, "confidence": 0.8, "reason": "检测到2个结论模式"}, "key_info": {"hit_rate": 0.25, "hits": 1, "total": 4, "missed": ["能见度8km", "毛毛雨", "IFR边缘"]}, "template_check": {"is_template": false, "score": 0.0, "reasons": []}, "safety_check": {"passed": true, "missed_criticals": []}}}, "judge": null, "timestamp": "2026-04-16T02:48:42.426715"}
{"case_id": "HO_010", "input": {"query": "大连机场吹雪天气能降吗", "role": "pilot", "metar": "METAR ZYTL 150600Z 33025G38KT 3000 BLSN SCT020 OVC040 M08/M12 Q1025"}, "output": "不能降。能见度2-4km，吹雪天气，风向330°风速25节阵风38节。吹雪会导致能见度快速变化，可能低于进近最低标准。阵风38节超过大多数机型侧风限制，需要确认跑道方向计算侧风分量。温度-8°C存在积冰风险。建议等待天气改善或备降。", "latency_ms": 19519, "tokens": null, "provider": "deepseek", "error": null, "error_type": null, "score": {"task_completed": true, "key_info_hit_rate": 0.4, "is_template": false, "overall_score": 0.82, "details": {"task_check": {"passed": true, "confidence": 0.8, "reason": "检测到2个结论模式"}, "key_info": {"hit_rate": 0.4, "hits": 2, "total": 5, "missed": ["低能见度", "IFR", "危险"]}, "template_check": {"is_template": false, "score": 0.0, "reasons": []}, "safety_check": {"passed": true, "missed_criticals": []}}}, "judge": null, "timestamp": "2026-04-16T02:49:01.946713"}
